[{"CCSDS_OMM_VERS":"2.0","COMMENT":"GENERATED VIA SPACE-TRACK.ORG API","CREATION_DATE":"2020-01-31T11:50:14","ORIGINATOR":"18 SPCS","OBJECT_NAME":"STARLINK-1024","OBJECT_ID":"2019-074S","CENTER_NAME":"EARTH","REF_FRAME":"TEME","TIME_SYSTEM":"UTC","MEAN_ELEMENT_THEORY":"SGP4","EPOCH":"2020-01-31T10:00:00.999936","MEAN_MOTION":"15.17875375","ECCENTRICITY":"0.00021880","INCLINATION":"53.0086","RA_OF_ASC_NODE":"134.5115","ARG_OF_PERICENTER":"50.0338","MEAN_ANOMALY":"218.3726","EPHEMERIS_TYPE":"0","CLASSIFICATION_TYPE":"U","NORAD_CAT_ID":"44729","ELEMENT_SET_NO":"999","REV_AT_EPOCH":"1266","BSTAR":"0.02707400000000","MEAN_MOTION_DOT":"0.00595432","MEAN_MOTION_DDOT":"0.0000000000000","SEMIMAJOR_AXIS":"6890.399","PERIOD":"94.869","APOAPSIS":"513.772","PERIAPSIS":"510.757","OBJECT_TYPE":"PAYLOAD","RCS_SIZE":"LARGE","COUNTRY_CODE":"US","LAUNCH_DATE":"2019-11-11","SITE":"AFETR","DECAY_DATE":null,"FILE":"2692800","GP_ID":"147747102","TLE_LINE0":"0 STARLINK-1024","TLE_LINE1":"1 44729U 19074S   20031.41667824  .00595432  00000-0  27074-1 0  9990","TLE_LINE2":"2 44729  53.0086 134.5115 0002188  50.0338 218.3726 15.17875375 12661"},{"CCSDS_OMM_VERS":"2.0","COMMENT":"GENERATED VIA SPACE-TRACK.ORG API","CREATION_DATE":"2020-01-31T14:40:16","ORIGINATOR":"18 SPCS","OBJECT_NAME":"STARLINK-1024","OBJECT_ID":"2019-074S","CENTER_NAME":"EARTH","REF_FRAME":"TEME","TIME_SYSTEM":"UTC","MEAN_ELEMENT_THEORY":"SGP4","EPOCH":"2020-01-31T14:00:01.000224","MEAN_MOTION":"15.17651828","ECCENTRICITY":"0.00014220","INCLINATION":"53.0075","RA_OF_ASC_NODE":"133.7489","ARG_OF_PERICENTER":"49.8404","MEAN_ANOMALY":"49.8699","EPHEMERIS_TYPE":"0","CLASSIFICATION_TYPE":"U","NORAD_CAT_ID":"44729","ELEMENT_SET_NO":"999","REV_AT_EPOCH":"1268","BSTAR":"-0.00540780000000","MEAN_MOTION_DOT":"-0.00108880","MEAN_MOTION_DDOT":"0.0000000000000","SEMIMAJOR_AXIS":"6891.076","PERIOD":"94.883","APOAPSIS":"513.921","PERIAPSIS":"511.961","OBJECT_TYPE":"PAYLOAD","RCS_SIZE":"LARGE","COUNTRY_CODE":"US","LAUNCH_DATE":"2019-11-11","SITE":"AFETR","DECAY_DATE":null,"FILE":"2693070","GP_ID":"147753574","TLE_LINE0":"0 STARLINK-1024","TLE_LINE1":"1 44729U 19074S   20031.58334491 -.00108880  00000-0 -54078-2 0  9993","TLE_LINE2":"2 44729  53.0075 133.7489 0001422  49.8404  49.8699 15.17651828 12687"},{"CCSDS_OMM_VERS":"2.0","COMMENT":"GENERATED VIA SPACE-TRACK.ORG API","CREATION_DATE":"2020-02-01T01:32:41","ORIGINATOR":"18 SPCS","OBJECT_NAME":"STARLINK-1024","OBJECT_ID":"2019-074S","CENTER_NAME":"EARTH","REF_FRAME":"TEME","TIME_SYSTEM":"UTC","MEAN_ELEMENT_THEORY":"SGP4","EPOCH":"2020-01-31T22:00:00.999936","MEAN_MOTION":"15.16967054","ECCENTRICITY":"0.00012930","INCLINATION":"53.0100","RA_OF_ASC_NODE":"132.2210","ARG_OF_PERICENTER":"72.7949","MEAN_ANOMALY":"48.9506","EPHEMERIS_TYPE":"0","CLASSIFICATION_TYPE":"U","NORAD_CAT_ID":"44729","ELEMENT_SET_NO":"999","REV_AT_EPOCH":"180","BSTAR":"0.00672500000000","MEAN_MOTION_DOT":"0.00136633","MEAN_MOTION_DDOT":"0.0000000000000","SEMIMAJOR_AXIS":"6893.150","PERIOD":"94.926","APOAPSIS":"515.906","PERIAPSIS":"514.123","OBJECT_TYPE":"PAYLOAD","RCS_SIZE":"LARGE","COUNTRY_CODE":"US","LAUNCH_DATE":"2019-11-11","SITE":"AFETR","DECAY_DATE":null,"FILE":"2693254","GP_ID":"147815890","TLE_LINE0":"0 STARLINK-1024","TLE_LINE1":"1 44729U 19074S   20031.91667824 +.00136633 +00000-0 +67250-2 0  9990","TLE_LINE2":"2 44729 053.0100 132.2210 0001293 072.7949 048.9506 15.16967054001806"},{"CCSDS_OMM_VERS":"2.0","COMMENT":"GENERATED VIA SPACE-TRACK.ORG API","CREATION_DATE":"2020-02-01T01:00:17","ORIGINATOR":"18 SPCS","OBJECT_NAME":"STARLINK-1024","OBJECT_ID":"2019-074S","CENTER_NAME":"EARTH","REF_FRAME":"TEME","TIME_SYSTEM":"UTC","MEAN_ELEMENT_THEORY":"SGP4","EPOCH":"2020-02-01T00:00:00.999648","MEAN_MOTION":"15.16796898","ECCENTRICITY":"0.00015430","INCLINATION":"53.0057","RA_OF_ASC_NODE":"131.8404","ARG_OF_PERICENTER":"63.7000","MEAN_ANOMALY":"153.4328","EPHEMERIS_TYPE":"0","CLASSIFICATION_TYPE":"U","NORAD_CAT_ID":"44729","ELEMENT_SET_NO":"999","REV_AT_EPOCH":"1275","BSTAR":"0.00800910000000","MEAN_MOTION_DOT":"0.00162579","MEAN_MOTION_DDOT":"0.0000000000000","SEMIMAJOR_AXIS":"6893.665","PERIOD":"94.936","APOAPSIS":"516.594","PERIAPSIS":"514.467","OBJECT_TYPE":"PAYLOAD","RCS_SIZE":"LARGE","COUNTRY_CODE":"US","LAUNCH_DATE":"2019-11-11","SITE":"AFETR","DECAY_DATE":null,"FILE":"2693176","GP_ID":"147794820","TLE_LINE0":"0 STARLINK-1024","TLE_LINE1":"1 44729U 19074S   20032.00001157  .00162579  00000-0  80091-2 0  9998","TLE_LINE2":"2 44729  53.0057 131.8404 0001543  63.7000 153.4328 15.16796898 12759"},{"CCSDS_OMM_VERS":"2.0","COMMENT":"GENERATED VIA SPACE-TRACK.ORG API","CREATION_DATE":"2020-02-01T06:40:16","ORIGINATOR":"18 SPCS","OBJECT_NAME":"STARLINK-1024","OBJECT_ID":"2019-074S","CENTER_NAME":"EARTH","REF_FRAME":"TEME","TIME_SYSTEM":"UTC","MEAN_ELEMENT_THEORY":"SGP4","EPOCH":"2020-02-01T06:00:00.999648","MEAN_MOTION":"15.16353886","ECCENTRICITY":"0.00014340","INCLINATION":"53.0073","RA_OF_ASC_NODE":"130.7015","ARG_OF_PERICENTER":"57.1325","MEAN_ANOMALY":"85.8523","EPHEMERIS_TYPE":"0","CLASSIFICATION_TYPE":"U","NORAD_CAT_ID":"44729","ELEMENT_SET_NO":"999","REV_AT_EPOCH":"1278","BSTAR":"-0.00390280000000","MEAN_MOTION_DOT":"-0.00076142","MEAN_MOTION_DDOT":"0.0000000000000","SEMIMAJOR_AXIS":"6895.008","PERIOD":"94.964","APOAPSIS":"517.862","PERIAPSIS":"515.884","OBJECT_TYPE":"PAYLOAD","RCS_SIZE":"LARGE","COUNTRY_CODE":"US","LAUNCH_DATE":"2019-11-11","SITE":"AFETR","DECAY_DATE":null,"FILE":"2693316","GP_ID":"147817404","TLE_LINE0":"0 STARLINK-1024","TLE_LINE1":"1 44729U 19074S   20032.25001157 -.00076142  00000-0 -39028-2 0  9991","TLE_LINE2":"2 44729  53.0073 130.7015 0001434  57.1325  85.8523 15.16353886 12783"},{"CCSDS_OMM_VERS":"2.0","COMMENT":"GENERATED VIA SPACE-TRACK.ORG API","CREATION_DATE":"2020-02-01T15:10:16","ORIGINATOR":"18 SPCS","OBJECT_NAME":"STARLINK-1024","OBJECT_ID":"2019-074S","CENTER_NAME":"EARTH","REF_FRAME":"TEME","TIME_SYSTEM":"UTC","MEAN_ELEMENT_THEORY":"SGP4","EPOCH":"2020-02-01T14:00:01.000224","MEAN_MOTION":"15.15683103","ECCENTRICITY":"0.00013450","INCLINATION":"53.0053","RA_OF_ASC_NODE":"129.1848","ARG_OF_PERICENTER":"56.6588","MEAN_ANOMALY":"106.7865","EPHEMERIS_TYPE":"0","CLASSIFICATION_TYPE":"U","NORAD_CAT_ID":"44729","ELEMENT_SET_NO":"999","REV_AT_EPOCH":"1284","BSTAR":"-0.00476760000000","MEAN_MOTION_DOT":"-0.00091004","MEAN_MOTION_DDOT":"0.0000000000000","SEMIMAJOR_AXIS":"6897.042","PERIOD":"95.006","APOAPSIS":"519.835","PERIAPSIS":"517.979","OBJECT_TYPE":"PAYLOAD","RCS_SIZE":"LARGE","COUNTRY_CODE":"US","LAUNCH_DATE":"2019-11-11","SITE":"AFETR","DECAY_DATE":null,"FILE":"2693507","GP_ID":"147821544","TLE_LINE0":"0 STARLINK-1024","TLE_LINE1":"1 44729U 19074S   20032.58334491 -.00091004  00000-0 -47676-2 0  9999","TLE_LINE2":"2 44729  53.0053 129.1848 0001345  56.6588 106.7865 15.15683103 12849"},{"CCSDS_OMM_VERS":"2.0","COMMENT":"GENERATED VIA SPACE-TRACK.ORG API","CREATION_DATE":"2020-02-01T22:30:16","ORIGINATOR":"18 SPCS","OBJECT_NAME":"STARLINK-1024","OBJECT_ID":"2019-074S","CENTER_NAME":"EARTH","REF_FRAME":"TEME","TIME_SYSTEM":"UTC","MEAN_ELEMENT_THEORY":"SGP4","EPOCH":"2020-02-01T22:00:00.999936","MEAN_MOTION":"15.15014049","ECCENTRICITY":"0.00012740","INCLINATION":"53.0083","RA_OF_ASC_NODE":"127.6530","ARG_OF_PERICENTER":"75.3629","MEAN_ANOMALY":"107.7500","EPHEMERIS_TYPE":"0","CLASSIFICATION_TYPE":"U","NORAD_CAT_ID":"44729","ELEMENT_SET_NO":"999","REV_AT_EPOCH":"1289","BSTAR":"0.00865330000000","MEAN_MOTION_DOT":"0.00167105","MEAN_MOTION_DDOT":"0.0000000000000","SEMIMAJOR_AXIS":"6899.072","PERIOD":"95.048","APOAPSIS":"521.816","PERIAPSIS":"520.058","OBJECT_TYPE":"PAYLOAD","RCS_SIZE":"LARGE","COUNTRY_CODE":"US","LAUNCH_DATE":"2019-11-11","SITE":"AFETR","DECAY_DATE":null,"FILE":"2693745","GP_ID":"147846533","TLE_LINE0":"0 STARLINK-1024","TLE_LINE1":"1 44729U 19074S   20032.91667824  .00167105  00000-0  86533-2 0  9994","TLE_LINE2":"2 44729  53.0083 127.6530 0001274  75.3629 107.7500 15.15014049 12897"},{"CCSDS_OMM_VERS":"2.0","COMMENT":"GENERATED VIA SPACE-TRACK.ORG API","CREATION_DATE":"2020-02-02T06:40:14","ORIGINATOR":"18 SPCS","OBJECT_NAME":"STARLINK-1024","OBJECT_ID":"2019-074S","CENTER_NAME":"EARTH","REF_FRAME":"TEME","TIME_SYSTEM":"UTC","MEAN_ELEMENT_THEORY":"SGP4","EPOCH":"2020-02-02T06:00:00.999648","MEAN_MOTION":"15.14387073","ECCENTRICITY":"0.00015650","INCLINATION":"53.0077","RA_OF_ASC_NODE":"126.1385","ARG_OF_PERICENTER":"54.7043","MEAN_ANOMALY":"147.2885","EPHEMERIS_TYPE":"0","CLASSIFICATION_TYPE":"U","NORAD_CAT_ID":"44729","ELEMENT_SET_NO":"999","REV_AT_EPOCH":"1294","BSTAR":"-0.00440660000000","MEAN_MOTION_DOT":"-0.00081220","MEAN_MOTION_DDOT":"0.0000000000000","SEMIMAJOR_AXIS":"6900.976","PERIOD":"95.087","APOAPSIS":"523.921","PERIAPSIS":"521.761","OBJECT_TYPE":"PAYLOAD","RCS_SIZE":"LARGE","COUNTRY_CODE":"US","LAUNCH_DATE":"2019-11-11","SITE":"AFETR","DECAY_DATE":null,"FILE":"2693881","GP_ID":"147868958","TLE_LINE0":"0 STARLINK-1024","TLE_LINE1":"1 44729U 19074S   20033.25001157 -.00081220  00000-0 -44066-2 0  9993","TLE_LINE2":"2 44729  53.0077 126.1385 0001565  54.7043 147.2885 15.14387073 12946"}]